[
    {
        "CCSDS_OMM_VERS": "3.0",
        "COMMENT": "GENERATED VIA SPACE-TRACK.ORG API",
        "CREATION_DATE": "2024-08-10T22:46:31",
        "ORIGINATOR": "18 SPCS",
        "OBJECT_NAME": "VSP ROSE",
        "OBJECT_ID": "2024-043AC",
        "CENTER_NAME": "EARTH",
        "REF_FRAME": "TEME",
        "TIME_SYSTEM": "UTC",
        "MEAN_ELEMENT_THEORY": "SGP4",
        "EPOCH": "2024-08-10T21:04:19.142976",
        "MEAN_MOTION": "15.18479185",
        "ECCENTRICITY": "0.00142290",
        "INCLINATION": "97.4808",
        "RA_OF_ASC_NODE": "347.0134",
        "ARG_OF_PERICENTER": "99.9125",
        "MEAN_ANOMALY": "260.3716",
        "EPHEMERIS_TYPE": "0",
        "CLASSIFICATION_TYPE": "U",
        "NORAD_CAT_ID": "59124",
        "ELEMENT_SET_NO": "999",
        "REV_AT_EPOCH": "2410",
        "BSTAR": "0.00051255000000",
        "MEAN_MOTION_DOT": "0.00010532",
        "MEAN_MOTION_DDOT": "0.0000000000000",
        "SEMIMAJOR_AXIS": "6888.573",
        "PERIOD": "94.832",
        "APOAPSIS": "520.240",
        "PERIAPSIS": "500.636",
        "OBJECT_TYPE": "PAYLOAD",
        "RCS_SIZE": "MEDIUM",
        "COUNTRY_CODE": "BEL",
        "LAUNCH_DATE": "2024-03-04",
        "SITE": "AFWTR",
        "DECAY_DATE": null,
        "FILE": "4427437",
        "GP_ID": "264737519",
        "TLE_LINE0": "0 VSP ROSE",
        "TLE_LINE1": "1 59124U 24043AC  24223.87799934  .00010532  00000-0  51255-3 0  9995",
        "TLE_LINE2": "2 59124  97.4808 347.0134 0014229  99.9125 260.3716 15.18479185 24105"
    },
    {
        "CCSDS_OMM_VERS": "3.0",
        "COMMENT": "GENERATED VIA SPACE-TRACK.ORG API",
        "CREATION_DATE": "2024-08-10T22:46:31",
        "ORIGINATOR": "18 SPCS",
        "OBJECT_NAME": "SSC",
        "OBJECT_ID": "1983-008H",
        "CENTER_NAME": "EARTH",
        "REF_FRAME": "TEME",
        "TIME_SYSTEM": "UTC",
        "MEAN_ELEMENT_THEORY": "SGP4",
        "EPOCH": "2024-08-10T21:04:17.875488",
        "MEAN_MOTION": "13.72329905",
        "ECCENTRICITY": "0.07905020",
        "INCLINATION": "63.3000",
        "RA_OF_ASC_NODE": "62.5115",
        "ARG_OF_PERICENTER": "124.0779",
        "MEAN_ANOMALY": "243.7884",
        "EPHEMERIS_TYPE": "0",
        "CLASSIFICATION_TYPE": "U",
        "NORAD_CAT_ID": "13874",
        "ELEMENT_SET_NO": "999",
        "REV_AT_EPOCH": "25860",
        "BSTAR": "0.00172110000000",
        "MEAN_MOTION_DOT": "0.00017735",
        "MEAN_MOTION_DDOT": "0.0000000000000",
        "SEMIMAJOR_AXIS": "7369.355",
        "PERIOD": "104.931",
        "APOAPSIS": "1573.769",
        "PERIAPSIS": "408.671",
        "OBJECT_TYPE": "PAYLOAD",
        "RCS_SIZE": "LARGE",
        "COUNTRY_CODE": "US",
        "LAUNCH_DATE": "1983-02-09",
        "SITE": "AFWTR",
        "DECAY_DATE": null,
        "FILE": "4427484",
        "GP_ID": "264736494",
        "TLE_LINE0": "0 SSC",
        "TLE_LINE1": "1 13874U 83008H   24223.87798467  .00017735  00000-0  17211-2 0  9998",
        "TLE_LINE2": "2 13874  63.3000  62.5115 0790502 124.0779 243.7884 13.72329905258608"
    },
    {
        "CCSDS_OMM_VERS": "3.0",
        "COMMENT": "GENERATED VIA SPACE-TRACK.ORG API",
        "CREATION_DATE": "2024-08-10T22:16:16",
        "ORIGINATOR": "18 SPCS",
        "OBJECT_NAME": "COSMOS 1226",
        "OBJECT_ID": "1980-099A",
        "CENTER_NAME": "EARTH",
        "REF_FRAME": "TEME",
        "TIME_SYSTEM": "UTC",
        "MEAN_ELEMENT_THEORY": "SGP4",
        "EPOCH": "2024-08-10T21:04:17.574816",
        "MEAN_MOTION": "13.74624886",
        "ECCENTRICITY": "0.00342730",
        "INCLINATION": "82.9434",
        "RA_OF_ASC_NODE": "144.0380",
        "ARG_OF_PERICENTER": "143.1848",
        "MEAN_ANOMALY": "281.6642",
        "EPHEMERIS_TYPE": "0",
        "CLASSIFICATION_TYPE": "U",
        "NORAD_CAT_ID": "12091",
        "ELEMENT_SET_NO": "999",
        "REV_AT_EPOCH": "19023",
        "BSTAR": "0.00013849000000",
        "MEAN_MOTION_DOT": "0.00000147",
        "MEAN_MOTION_DDOT": "0.0000000000000",
        "SEMIMAJOR_AXIS": "7361.151",
        "PERIOD": "104.756",
        "APOAPSIS": "1008.245",
        "PERIAPSIS": "957.787",
        "OBJECT_TYPE": "PAYLOAD",
        "RCS_SIZE": "LARGE",
        "COUNTRY_CODE": "CIS",
        "LAUNCH_DATE": "1980-12-10",
        "SITE": "PKMTR",
        "DECAY_DATE": null,
        "FILE": "4427141",
        "GP_ID": "264728473",
        "TLE_LINE0": "0 COSMOS 1226",
        "TLE_LINE1": "1 12091U 80099A   24223.87798119  .00000147  00000-0  13849-3 0  9992",
        "TLE_LINE2": "2 12091  82.9434 144.0380 0034273 143.1848 281.6642 13.74624886190236"
    },
    {
        "CCSDS_OMM_VERS": "3.0",
        "COMMENT": "GENERATED VIA SPACE-TRACK.ORG API",
        "CREATION_DATE": "2024-08-10T22:56:16",
        "ORIGINATOR": "18 SPCS",
        "OBJECT_NAME": "STARLINK-31315",
        "OBJECT_ID": "2024-020J",
        "CENTER_NAME": "EARTH",
        "REF_FRAME": "TEME",
        "TIME_SYSTEM": "UTC",
        "MEAN_ELEMENT_THEORY": "SGP4",
        "EPOCH": "2024-08-10T21:04:16.963968",
        "MEAN_MOTION": "15.39629305",
        "ECCENTRICITY": "0.00013950",
        "INCLINATION": "53.1581",
        "RA_OF_ASC_NODE": "96.1380",
        "ARG_OF_PERICENTER": "94.5944",
        "MEAN_ANOMALY": "265.5220",
        "EPHEMERIS_TYPE": "0",
        "CLASSIFICATION_TYPE": "U",
        "NORAD_CAT_ID": "58884",
        "ELEMENT_SET_NO": "999",
        "REV_AT_EPOCH": "3120",
        "BSTAR": "0.00028306000000",
        "MEAN_MOTION_DOT": "0.00010942",
        "MEAN_MOTION_DDOT": "0.0000000000000",
        "SEMIMAJOR_AXIS": "6825.342",
        "PERIOD": "93.529",
        "APOAPSIS": "448.159",
        "PERIAPSIS": "446.255",
        "OBJECT_TYPE": "PAYLOAD",
        "RCS_SIZE": "LARGE",
        "COUNTRY_CODE": "US",
        "LAUNCH_DATE": "2024-01-29",
        "SITE": "AFWTR",
        "DECAY_DATE": null,
        "FILE": "4427567",
        "GP_ID": "264741205",
        "TLE_LINE0": "0 STARLINK-31315",
        "TLE_LINE1": "1 58884U 24020J   24223.87797412  .00010942  00000-0  28306-3 0  9997",
        "TLE_LINE2": "2 58884  53.1581  96.1380 0001395  94.5944 265.5220 15.39629305 31209"
    },
    {
        "CCSDS_OMM_VERS": "3.0",
        "COMMENT": "GENERATED VIA SPACE-TRACK.ORG API",
        "CREATION_DATE": "2024-08-10T22:46:31",
        "ORIGINATOR": "18 SPCS",
        "OBJECT_NAME": "OBJECT H",
        "OBJECT_ID": "2024-128H",
        "CENTER_NAME": "EARTH",
        "REF_FRAME": "TEME",
        "TIME_SYSTEM": "UTC",
        "MEAN_ELEMENT_THEORY": "SGP4",
        "EPOCH": "2024-08-10T21:04:14.026368",
        "MEAN_MOTION": "14.96351480",
        "ECCENTRICITY": "0.00141410",
        "INCLINATION": "61.9859",
        "RA_OF_ASC_NODE": "50.9971",
        "ARG_OF_PERICENTER": "289.3998",
        "MEAN_ANOMALY": "70.5561",
        "EPHEMERIS_TYPE": "0",
        "CLASSIFICATION_TYPE": "U",
        "NORAD_CAT_ID": "60242",
        "ELEMENT_SET_NO": "999",
        "REV_AT_EPOCH": "479",
        "BSTAR": "0.00136440000000",
        "MEAN_MOTION_DOT": "0.00015393",
        "MEAN_MOTION_DDOT": "0.0000000000000",
        "SEMIMAJOR_AXIS": "6956.318",
        "PERIOD": "96.234",
        "APOAPSIS": "588.020",
        "PERIAPSIS": "568.346",
        "OBJECT_TYPE": "UNKNOWN",
        "RCS_SIZE": "SMALL",
        "COUNTRY_CODE": "TBD",
        "LAUNCH_DATE": "2024-07-09",
        "SITE": "FRGUI",
        "DECAY_DATE": null,
        "FILE": "4427475",
        "GP_ID": "264737294",
        "TLE_LINE0": "0 OBJECT H",
        "TLE_LINE1": "1 60242U 24128H   24223.87794012  .00015393  00000-0  13644-2 0  9993",
        "TLE_LINE2": "2 60242  61.9859  50.9971 0014141 289.3998  70.5561 14.96351480  4799"
    },
    {
        "CCSDS_OMM_VERS": "3.0",
        "COMMENT": "GENERATED VIA SPACE-TRACK.ORG API",
        "CREATION_DATE": "2024-08-10T22:26:16",
        "ORIGINATOR": "18 SPCS",
        "OBJECT_NAME": "OBJECT AK",
        "OBJECT_ID": "2023-085AK",
        "CENTER_NAME": "EARTH",
        "REF_FRAME": "TEME",
        "TIME_SYSTEM": "UTC",
        "MEAN_ELEMENT_THEORY": "SGP4",
        "EPOCH": "2024-08-10T21:04:13.171872",
        "MEAN_MOTION": "15.16852926",
        "ECCENTRICITY": "0.00089670",
        "INCLINATION": "97.4722",
        "RA_OF_ASC_NODE": "327.0095",
        "ARG_OF_PERICENTER": "275.5796",
        "MEAN_ANOMALY": "84.4415",
        "EPHEMERIS_TYPE": "0",
        "CLASSIFICATION_TYPE": "U",
        "NORAD_CAT_ID": "57037",
        "ELEMENT_SET_NO": "999",
        "REV_AT_EPOCH": "6391",
        "BSTAR": "0.00103320000000",
        "MEAN_MOTION_DOT": "0.00020323",
        "MEAN_MOTION_DDOT": "0.0000000000000",
        "SEMIMAJOR_AXIS": "6893.496",
        "PERIOD": "94.933",
        "APOAPSIS": "521.542",
        "PERIAPSIS": "509.180",
        "OBJECT_TYPE": "UNKNOWN",
        "RCS_SIZE": "MEDIUM",
        "COUNTRY_CODE": "PRC",
        "LAUNCH_DATE": "2023-06-15",
        "SITE": "TSC",
        "DECAY_DATE": null,
        "FILE": "4427183",
        "GP_ID": "264730667",
        "TLE_LINE0": "0 OBJECT AK",
        "TLE_LINE1": "1 57037U 23085AK  24223.87793023  .00020323  00000-0  10332-2 0  9993",
        "TLE_LINE2": "2 57037  97.4722 327.0095 0008967 275.5796  84.4415 15.16852926 63912"
    }
]